ORBCOMM FM20            
1 25416U 98046D   24251.57574039  .00004457  00000+0  15750-2 0  9998
2 25416  44.9933  78.3591 0000655 189.7802 170.3033 14.35754831363624
ORBCOMM FM16            
1 25417U 98046E   24251.58446830  .00006131  00000+0  20979-2 0  9997
2 25417  44.9932  73.1059 0003092 301.8217  58.2330 14.36931141363571
ORBCOMM FM15            
1 25418U 98046F   24251.56521301  .00005847  00000+0  20154-2 0  9991
2 25418  44.9964  77.5534 0002664 305.4148  54.6450 14.36626038363579
ORBCOMM FM14            
1 25419U 98046G   24251.57346677  .00005926  00000+0  20325-2 0  9992
2 25419  44.9953  76.4388 0001773 280.8323  79.2325 14.36852346363537
ORBCOMM FM13            
1 25420U 98046H   24251.61439257  .00005289  00000+0  18503-2 0  9993
2 25420  44.9968  81.8433 0004066 288.7052  71.3354 14.36009367362597
ORBCOMM FM21            
1 25475U 98053A   24251.50384101  .00004736  00000+0  16668-2 0  9992
2 25475  45.0075 166.8843 0001284 313.5635  46.5106 14.35872339356925
ORBCOMM FM22            
1 25476U 98053B   24251.22459774  .00005775  00000+0  19956-2 0  9998
2 25476  45.0068 164.9549 0002141 267.7216  92.3386 14.36516094356550
ORBCOMM FM23            
1 25477U 98053C   24251.45862170  .00005124  00000+0  17977-2 0  9991
2 25477  45.0071 169.4825 0001741 280.8850  79.1801 14.35917950356737
