<?xml version="1.0" encoding="UTF-8"?>
<ndm xmlns:xsi="http://www.w3.org/2001/XMLSchema-instance" xsi:noNamespaceSchemaLocation="https://sanaregistry.org/r/ndmxml_unqualified/ndmxml-2.0.0-master-2.0.xsd">
<omm id="CCSDS_OMM_VERS" version="2.0">
<header><CREATION_DATE/><ORIGINATOR/></header><body><segment><metadata><OBJECT_NAME>ORBCOMM FM20</OBJECT_NAME><OBJECT_ID>1998-046D</OBJECT_ID><CENTER_NAME>EARTH</CENTER_NAME><REF_FRAME>TEME</REF_FRAME><TIME_SYSTEM>UTC</TIME_SYSTEM><MEAN_ELEMENT_THEORY>SGP4</MEAN_ELEMENT_THEORY></metadata><data><meanElements><EPOCH>2024-09-07T13:49:03.969696</EPOCH><MEAN_MOTION>14.35754831</MEAN_MOTION><ECCENTRICITY>.0000655</ECCENTRICITY><INCLINATION>44.9933</INCLINATION><RA_OF_ASC_NODE>78.3591</RA_OF_ASC_NODE><ARG_OF_PERICENTER>189.7802</ARG_OF_PERICENTER><MEAN_ANOMALY>170.3033</MEAN_ANOMALY></meanElements><tleParameters><EPHEMERIS_TYPE>0</EPHEMERIS_TYPE><CLASSIFICATION_TYPE>U</CLASSIFICATION_TYPE><NORAD_CAT_ID>25416</NORAD_CAT_ID><ELEMENT_SET_NO>999</ELEMENT_SET_NO><REV_AT_EPOCH>36362</REV_AT_EPOCH><BSTAR>.1575E-2</BSTAR><MEAN_MOTION_DOT>.4457E-4</MEAN_MOTION_DOT><MEAN_MOTION_DDOT>0</MEAN_MOTION_DDOT></tleParameters></data></segment></body></omm>
<omm id="CCSDS_OMM_VERS" version="2.0">
<header><CREATION_DATE/><ORIGINATOR/></header><body><segment><metadata><OBJECT_NAME>ORBCOMM FM16</OBJECT_NAME><OBJECT_ID>1998-046E</OBJECT_ID><CENTER_NAME>EARTH</CENTER_NAME><REF_FRAME>TEME</REF_FRAME><TIME_SYSTEM>UTC</TIME_SYSTEM><MEAN_ELEMENT_THEORY>SGP4</MEAN_ELEMENT_THEORY></metadata><data><meanElements><EPOCH>2024-09-07T14:01:38.061120</EPOCH><MEAN_MOTION>14.36931141</MEAN_MOTION><ECCENTRICITY>.0003092</ECCENTRICITY><INCLINATION>44.9932</INCLINATION><RA_OF_ASC_NODE>73.1059</RA_OF_ASC_NODE><ARG_OF_PERICENTER>301.8217</ARG_OF_PERICENTER><MEAN_ANOMALY>58.2330</MEAN_ANOMALY></meanElements><tleParameters><EPHEMERIS_TYPE>0</EPHEMERIS_TYPE><CLASSIFICATION_TYPE>U</CLASSIFICATION_TYPE><NORAD_CAT_ID>25417</NORAD_CAT_ID><ELEMENT_SET_NO>999</ELEMENT_SET_NO><REV_AT_EPOCH>36357</REV_AT_EPOCH><BSTAR>.20979E-2</BSTAR><MEAN_MOTION_DOT>.6131E-4</MEAN_MOTION_DOT><MEAN_MOTION_DDOT>0</MEAN_MOTION_DDOT></tleParameters></data></segment></body></omm>
<omm id="CCSDS_OMM_VERS" version="2.0">
<header><CREATION_DATE/><ORIGINATOR/></header><body><segment><metadata><OBJECT_NAME>ORBCOMM FM15</OBJECT_NAME><OBJECT_ID>1998-046F</OBJECT_ID><CENTER_NAME>EARTH</CENTER_NAME><REF_FRAME>TEME</REF_FRAME><TIME_SYSTEM>UTC</TIME_SYSTEM><MEAN_ELEMENT_THEORY>SGP4</MEAN_ELEMENT_THEORY></metadata><data><meanElements><EPOCH>2024-09-07T13:33:54.404064</EPOCH><MEAN_MOTION>14.36626038</MEAN_MOTION><ECCENTRICITY>.0002664</ECCENTRICITY><INCLINATION>44.9964</INCLINATION><RA_OF_ASC_NODE>77.5534</RA_OF_ASC_NODE><ARG_OF_PERICENTER>305.4148</ARG_OF_PERICENTER><MEAN_ANOMALY>54.6450</MEAN_ANOMALY></meanElements><tleParameters><EPHEMERIS_TYPE>0</EPHEMERIS_TYPE><CLASSIFICATION_TYPE>U</CLASSIFICATION_TYPE><NORAD_CAT_ID>25418</NORAD_CAT_ID><ELEMENT_SET_NO>999</ELEMENT_SET_NO><REV_AT_EPOCH>36357</REV_AT_EPOCH><BSTAR>.20154E-2</BSTAR><MEAN_MOTION_DOT>.5847E-4</MEAN_MOTION_DOT><MEAN_MOTION_DDOT>0</MEAN_MOTION_DDOT></tleParameters></data></segment></body></omm>
<omm id="CCSDS_OMM_VERS" version="2.0">
<header><CREATION_DATE/><ORIGINATOR/></header><body><segment><metadata><OBJECT_NAME>ORBCOMM FM14</OBJECT_NAME><OBJECT_ID>1998-046G</OBJECT_ID><CENTER_NAME>EARTH</CENTER_NAME><REF_FRAME>TEME</REF_FRAME><TIME_SYSTEM>UTC</TIME_SYSTEM><MEAN_ELEMENT_THEORY>SGP4</MEAN_ELEMENT_THEORY></metadata><data><meanElements><EPOCH>2024-09-07T13:45:47.528928</EPOCH><MEAN_MOTION>14.36852346</MEAN_MOTION><ECCENTRICITY>.0001773</ECCENTRICITY><INCLINATION>44.9953</INCLINATION><RA_OF_ASC_NODE>76.4388</RA_OF_ASC_NODE><ARG_OF_PERICENTER>280.8323</ARG_OF_PERICENTER><MEAN_ANOMALY>79.2325</MEAN_ANOMALY></meanElements><tleParameters><EPHEMERIS_TYPE>0</EPHEMERIS_TYPE><CLASSIFICATION_TYPE>U</CLASSIFICATION_TYPE><NORAD_CAT_ID>25419</NORAD_CAT_ID><ELEMENT_SET_NO>999</ELEMENT_SET_NO><REV_AT_EPOCH>36353</REV_AT_EPOCH><BSTAR>.20325E-2</BSTAR><MEAN_MOTION_DOT>.5926E-4</MEAN_MOTION_DOT><MEAN_MOTION_DDOT>0</MEAN_MOTION_DDOT></tleParameters></data></segment></body></omm>
<omm id="CCSDS_OMM_VERS" version="2.0">
<header><CREATION_DATE/><ORIGINATOR/></header><body><segment><metadata><OBJECT_NAME>ORBCOMM FM13</OBJECT_NAME><OBJECT_ID>1998-046H</OBJECT_ID><CENTER_NAME>EARTH</CENTER_NAME><REF_FRAME>TEME</REF_FRAME><TIME_SYSTEM>UTC</TIME_SYSTEM><MEAN_ELEMENT_THEORY>SGP4</MEAN_ELEMENT_THEORY></metadata><data><meanElements><EPOCH>2024-09-07T14:44:43.518048</EPOCH><MEAN_MOTION>14.36009367</MEAN_MOTION><ECCENTRICITY>.0004066</ECCENTRICITY><INCLINATION>44.9968</INCLINATION><RA_OF_ASC_NODE>81.8433</RA_OF_ASC_NODE><ARG_OF_PERICENTER>288.7052</ARG_OF_PERICENTER><MEAN_ANOMALY>71.3354</MEAN_ANOMALY></meanElements><tleParameters><EPHEMERIS_TYPE>0</EPHEMERIS_TYPE><CLASSIFICATION_TYPE>U</CLASSIFICATION_TYPE><NORAD_CAT_ID>25420</NORAD_CAT_ID><ELEMENT_SET_NO>999</ELEMENT_SET_NO><REV_AT_EPOCH>36259</REV_AT_EPOCH><BSTAR>.18503E-2</BSTAR><MEAN_MOTION_DOT>.5289E-4</MEAN_MOTION_DOT><MEAN_MOTION_DDOT>0</MEAN_MOTION_DDOT></tleParameters></data></segment></body></omm>
<omm id="CCSDS_OMM_VERS" version="2.0">
<header><CREATION_DATE/><ORIGINATOR/></header><body><segment><metadata><OBJECT_NAME>ORBCOMM FM21</OBJECT_NAME><OBJECT_ID>1998-053A</OBJECT_ID><CENTER_NAME>EARTH</CENTER_NAME><REF_FRAME>TEME</REF_FRAME><TIME_SYSTEM>UTC</TIME_SYSTEM><MEAN_ELEMENT_THEORY>SGP4</MEAN_ELEMENT_THEORY></metadata><data><meanElements><EPOCH>2024-09-07T12:05:31.863264</EPOCH><MEAN_MOTION>14.35872339</MEAN_MOTION><ECCENTRICITY>.0001284</ECCENTRICITY><INCLINATION>45.0075</INCLINATION><RA_OF_ASC_NODE>166.8843</RA_OF_ASC_NODE><ARG_OF_PERICENTER>313.5635</ARG_OF_PERICENTER><MEAN_ANOMALY>46.5106</MEAN_ANOMALY></meanElements><tleParameters><EPHEMERIS_TYPE>0</EPHEMERIS_TYPE><CLASSIFICATION_TYPE>U</CLASSIFICATION_TYPE><NORAD_CAT_ID>25475</NORAD_CAT_ID><ELEMENT_SET_NO>999</ELEMENT_SET_NO><REV_AT_EPOCH>35692</REV_AT_EPOCH><BSTAR>.16668E-2</BSTAR><MEAN_MOTION_DOT>.4736E-4</MEAN_MOTION_DOT><MEAN_MOTION_DDOT>0</MEAN_MOTION_DDOT></tleParameters></data></segment></body></omm>
<omm id="CCSDS_OMM_VERS" version="2.0">
<header><CREATION_DATE/><ORIGINATOR/></header><body><segment><metadata><OBJECT_NAME>ORBCOMM FM22</OBJECT_NAME><OBJECT_ID>1998-053B</OBJECT_ID><CENTER_NAME>EARTH</CENTER_NAME><REF_FRAME>TEME</REF_FRAME><TIME_SYSTEM>UTC</TIME_SYSTEM><MEAN_ELEMENT_THEORY>SGP4</MEAN_ELEMENT_THEORY></metadata><data><meanElements><EPOCH>2024-09-07T05:23:25.244736</EPOCH><MEAN_MOTION>14.36516094</MEAN_MOTION><ECCENTRICITY>.0002141</ECCENTRICITY><INCLINATION>45.0068</INCLINATION><RA_OF_ASC_NODE>164.9549</RA_OF_ASC_NODE><ARG_OF_PERICENTER>267.7216</ARG_OF_PERICENTER><MEAN_ANOMALY>92.3386</MEAN_ANOMALY></meanElements><tleParameters><EPHEMERIS_TYPE>0</EPHEMERIS_TYPE><CLASSIFICATION_TYPE>U</CLASSIFICATION_TYPE><NORAD_CAT_ID>25476</NORAD_CAT_ID><ELEMENT_SET_NO>999</ELEMENT_SET_NO><REV_AT_EPOCH>35655</REV_AT_EPOCH><BSTAR>.19956E-2</BSTAR><MEAN_MOTION_DOT>.5775E-4</MEAN_MOTION_DOT><MEAN_MOTION_DDOT>0</MEAN_MOTION_DDOT></tleParameters></data></segment></body></omm>
<omm id="CCSDS_OMM_VERS" version="2.0">
<header><CREATION_DATE/><ORIGINATOR/></header><body><segment><metadata><OBJECT_NAME>ORBCOMM FM23</OBJECT_NAME><OBJECT_ID>1998-053C</OBJECT_ID><CENTER_NAME>EARTH</CENTER_NAME><REF_FRAME>TEME</REF_FRAME><TIME_SYSTEM>UTC</TIME_SYSTEM><MEAN_ELEMENT_THEORY>SGP4</MEAN_ELEMENT_THEORY></metadata><data><meanElements><EPOCH>2024-09-07T11:00:24.914880</EPOCH><MEAN_MOTION>14.35917950</MEAN_MOTION><ECCENTRICITY>.0001741</ECCENTRICITY><INCLINATION>45.0071</INCLINATION><RA_OF_ASC_NODE>169.4825</RA_OF_ASC_NODE><ARG_OF_PERICENTER>280.8850</ARG_OF_PERICENTER><MEAN_ANOMALY>79.1801</MEAN_ANOMALY></meanElements><tleParameters><EPHEMERIS_TYPE>0</EPHEMERIS_TYPE><CLASSIFICATION_TYPE>U</CLASSIFICATION_TYPE><NORAD_CAT_ID>25477</NORAD_CAT_ID><ELEMENT_SET_NO>999</ELEMENT_SET_NO><REV_AT_EPOCH>35673</REV_AT_EPOCH><BSTAR>.17977E-2</BSTAR><MEAN_MOTION_DOT>.5124E-4</MEAN_MOTION_DOT><MEAN_MOTION_DDOT>0</MEAN_MOTION_DDOT></tleParameters></data></segment></body></omm>

</ndm>
